{
  "norad_id": 68435,
  "name": "TRANSPORTER-16 OBJECT V",
  "history": [
    {
      "epoch": "2026-04-14T03:20:20.647968Z",
      "apogee_km": 513.543688916352,
      "perigee_km": 512.6108941498505,
      "latitude_deg": -1.6356191545789332e-05,
      "longitude_deg": 171.1559247924413,
      "height_km": 516.1854090336794,
      "semi_major_axis_km": 6891.2142915331015,
      "eccentricity": 6.768e-05,
      "inclination_deg": 97.4496,
      "raan_deg": 63.5618,
      "arg_perigee_deg": 267.3808,
      "mean_anomaly_deg": 92.7348,
      "mean_motion_rev_day": 15.1760633
    }
  ]
}