TRANSPORTER-16 OBJECT V
1 68435U 26067V   26104.13912787  .00001988  00000+0  10224-3 0  9995
2 68435  97.4496  63.5618 0000676 267.3808  92.7348 15.17606330  2220
